ONEWEB-0607             
1 54671U 22166AF  24354.48998705  .00000046  00000+0  79117-4 0  9996
2 54671  87.9294 352.4851 0001983  83.8353 276.3007 13.21828398 99584
ONEWEB-0608             
1 54672U 22166AG  24354.49629659  .00000079  00000+0  15964-3 0  9992
2 54672  87.9277 352.5044 0002306  85.4777 274.6620 13.21828086 99596
ONEWEB-0610             
1 54673U 22166AH  24354.70448381  .00000068  00000+0  13261-3 0  9994
2 54673  87.9293 352.4607 0002308  86.9029 273.2369 13.21826269 99997
ONEWEB-0611             
1 54674U 22166AJ  24354.69815256  .00000022  00000+0  22924-4 0  9999
2 54674  87.9293 352.4598 0001510  90.0829 270.0478 13.21823425 99981
ONEWEB-0612             
1 54675U 22166AK  24354.48370262  .00000061  00000+0  11635-3 0  9999
2 54675  87.9291 352.4824 0002004  86.1706 273.9657 13.21826638 99475
ONEWEB-0615             
1 54676U 22166AL  24354.99463321 -.00000057  00000+0 -17001-3 0  9995
2 54676  87.9291 352.4064 0001910  81.2628 278.8722 13.21827500100026
ONEWEB-0655             
1 54677U 22166AM  24355.04351485 -.00000446  00000+0 -11121-2 0  9998
2 54677  87.9293 352.4000 0001892  77.0590 283.0755 13.21824485100022
ONEWEB-0659             
1 54678U 22166AN  24355.06086927 -.00000046  00000+0 -14341-3 0  9991
2 54678  87.9292 352.4005 0001800  94.2284 265.9056 13.21823517100115
